      2.10          N: GNSS NAV DATA                        RINEX VERSION / TYPE
fic2rin                                 11/27/2019 00:17:13 PGM / RUN BY / DATE
                                                            END OF HEADER
23 19 11 26 22  0  0.0-1.531592570245e-04 2.273736754432e-12 0.000000000000e+00
    5.200000000000e+01-3.143750000000e+01 5.284862992899e-09-3.051085796073e+00
   -1.795589923859e-06 1.324210956227e-02 6.577000021935e-06 5.153707765579e+03
    2.520000000000e+05 9.685754776001e-08 2.113667555423e+00-2.030283212662e-07
    9.430663523047e-01 2.448750000000e+02-2.218453953386e+00-8.094622887820e-09
   -4.746626287466e-10 1.000000000000e+00 2.081000000000e+03 0.000000000000e+00
    2.400000000000e+00 0.000000000000e+00-2.048909664154e-08 5.200000000000e+01
    2.448000000000e+05 4.000000000000e+00
15 19 11 26 22  0  0.0-2.698469907045e-04 2.728484105319e-12 0.000000000000e+00
    5.700000000000e+01-3.937500000000e+01 5.715952378074e-09-2.502443067427e+00
   -2.328306436539e-06 1.205453672446e-02 5.654990673065e-06 5.153593259811e+03
    2.520000000000e+05 1.862645149231e-07 2.035770675780e+00-1.713633537292e-07
    9.277080297346e-01 2.510000000000e+02 8.431916637573e-01-8.472852928334e-09
   -3.064413359402e-10 1.000000000000e+00 2.081000000000e+03 0.000000000000e+00
    2.400000000000e+00 0.000000000000e+00-1.117587089539e-08 5.700000000000e+01
    2.448000000000e+05 4.000000000000e+00
14 19 11 26 22  0  0.0-4.823226481676e-05 2.160049916711e-12 0.000000000000e+00
    5.700000000000e+01-2.468750000000e+01 4.776270379404e-09-1.927394143725e+00
   -1.214444637299e-06 1.071358530317e-02 7.484108209610e-06 5.153586282730e+03
    2.520000000000e+05 1.844018697739e-07 2.214910455659e+00 6.519258022308e-08
    9.602250325640e-01 2.311250000000e+02-1.929767804381e+00-7.875685196758e-09
   -4.918061999880e-10 1.000000000000e+00 2.081000000000e+03 0.000000000000e+00
    2.400000000000e+00 0.000000000000e+00-9.778887033463e-09 5.700000000000e+01
    2.448000000000e+05 4.000000000000e+00
19 19 11 26 22  0  0.0-2.343496307731e-04 5.229594535194e-12 0.000000000000e+00
    5.200000000000e+01-1.251250000000e+02 4.173745281815e-09 1.037666568715e+00
   -6.746500730515e-06 9.205782436766e-03 3.697350621223e-06 5.153658180237e+03
    2.520000000000e+05-1.490116119385e-08-9.045142301569e-01-1.415610313416e-07
    9.822053430579e-01 3.271875000000e+02 1.532091601811e+00-8.221771041194e-09
   -4.760912596834e-10 1.000000000000e+00 2.081000000000e+03 0.000000000000e+00
    2.400000000000e+00 0.000000000000e+00-1.536682248116e-08 5.200000000000e+01
    2.448000000000e+05 4.000000000000e+00
21 19 11 26 22  0  0.0-7.992703467607e-05 5.911715561524e-12 0.000000000000e+00
    6.100000000000e+01-8.715625000000e+01 4.515188075707e-09 6.343816655027e-01
   -4.734843969345e-06 2.459413243923e-02 1.227110624313e-05 5.153616302490e+03
    2.520000000000e+05-2.626329660416e-07-2.184513393751e-02-3.017485141754e-07
    9.512418451210e-01 1.485312500000e+02-1.395217579178e+00-8.335704358402e-09
    7.750322832055e-11 1.000000000000e+00 2.081000000000e+03 0.000000000000e+00
    2.400000000000e+00 0.000000000000e+00-1.024454832077e-08 6.100000000000e+01
    2.448000000000e+05 4.000000000000e+00
29 19 11 26 22  0  0.0 3.381725400686e-05-9.890754881781e-12 0.000000000000e+00
    4.700000000000e+01-1.182812500000e+02 4.042668393365e-09-1.444801012116e+00
   -6.215646862984e-06 1.062029623426e-03 3.449618816376e-06 5.153664728165e+03
    2.520000000000e+05-4.097819328308e-08-9.389992732716e-01-7.450580596924e-09
    9.857289787457e-01 3.255000000000e+02 2.050790378165e+00-8.072121950566e-09
   -3.860875106660e-10 1.000000000000e+00 2.081000000000e+03 0.000000000000e+00
    2.400000000000e+00 0.000000000000e+00-9.778887033463e-09 4.700000000000e+01
    2.448000000000e+05 4.000000000000e+00
32 19 11 26 22  0  0.0 1.374701969326e-04 1.182343112305e-11 0.000000000000e+00
    5.500000000000e+01-3.143750000000e+01 4.998779647808e-09-8.337258640287e-01
   -1.581385731697e-06 3.286288934760e-03 6.932765245438e-06 5.153644933701e+03
    2.520000000000e+05 4.842877388000e-08 2.128077858802e+00 7.264316082001e-08
    9.564569505797e-01 2.433750000000e+02-2.545240795816e+00-8.148196547949e-09
   -5.050210361533e-10 1.000000000000e+00 2.081000000000e+03 0.000000000000e+00
    2.400000000000e+00 0.000000000000e+00 4.656612873077e-10 5.500000000000e+01
    2.448000000000e+05 4.000000000000e+00
26 19 11 26 22  0  0.0 9.292876347899e-05 8.299139153678e-12 0.000000000000e+00
    5.300000000000e+01 1.170000000000e+02 5.000565436479e-09 2.679884416971e-01
    6.036832928658e-06 4.267368465662e-03 1.965090632439e-06 5.153707376480e+03
    2.520000000000e+05 1.080334186554e-07-2.083390299191e+00-3.725290298462e-09
    9.490953654030e-01 3.318750000000e+02 1.277033929589e-01-8.622144861228e-09
    2.085801167705e-10 1.000000000000e+00 2.081000000000e+03 0.000000000000e+00
    2.400000000000e+00 0.000000000000e+00 7.450580596924e-09 5.300000000000e+01
    2.448000000000e+05 4.000000000000e+00
20 19 11 26 22  0  0.0 5.275453440845e-04 1.136868377216e-13 0.000000000000e+00
    5.800000000000e+01 4.184375000000e+01 5.383438527538e-09 2.055813234244e+00
    2.153217792511e-06 5.081783165224e-03 7.305294275284e-06 5.153616554260e+03
    2.520000000000e+05 2.235174179077e-08 9.606175890756e-01 7.636845111847e-08
    9.320173709274e-01 2.220937500000e+02 2.500379802878e+00-8.351062140973e-09
    6.064538326650e-10 1.000000000000e+00 2.081000000000e+03 0.000000000000e+00
    2.400000000000e+00 0.000000000000e+00-8.381903171539e-09 5.800000000000e+01
    2.448000000000e+05 4.000000000000e+00
18 19 11 26 22  0  0.0 1.028063707054e-04 2.501110429876e-12 0.000000000000e+00
    6.000000000000e+01-1.155312500000e+02 4.066597961557e-09 2.194356162599e+00
   -5.947425961494e-06 1.561619027052e-02 1.256912946701e-05 5.153668867111e+03
    2.520000000000e+05 2.402812242508e-07-1.171019840534e-02-1.732259988785e-07
    9.568814996467e-01 1.301875000000e+02 1.446204316283e+00-7.534242402866e-09
    2.250093725435e-10 1.000000000000e+00 2.081000000000e+03 0.000000000000e+00
    2.400000000000e+00 6.300000000000e+01-5.587935447693e-09 6.000000000000e+01
    2.448000000000e+05 4.000000000000e+00
28 19 11 26 22  0  0.0 7.533561438322e-04-1.705302565824e-12 0.000000000000e+00
    9.000000000000e+01 9.825000000000e+01 4.505901974618e-09-8.583185278176e-01
    5.286186933517e-06 1.909527997486e-02 2.618879079819e-06 5.153707841873e+03
    2.520000000000e+05-3.129243850708e-07-1.962029567504e+00 7.450580596924e-09
    9.797254014041e-01 3.439062500000e+02-1.435837610640e+00-8.656789161445e-09
    3.000124967247e-10 1.000000000000e+00 2.081000000000e+03 0.000000000000e+00
    4.850000000000e+00 0.000000000000e+00-1.117587089539e-08 9.000000000000e+01
    2.448000000000e+05 4.000000000000e+00
22 19 11 26 21 59 44.0-7.742000743747e-04-2.273736754432e-12 0.000000000000e+00
    0.000000000000e+00 3.625000000000e+01 5.432726294857e-09-2.548917107486e+00
    1.899898052216e-06 6.873545236886e-03 6.902962923050e-06 5.153633214951e+03
    2.519840000000e+05 9.499490261078e-08 1.008696088927e+00 8.940696716309e-08
    9.286817875069e-01 2.239375000000e+02-1.261351687698e+00-8.297845638578e-09
    7.075294714424e-10 1.000000000000e+00 2.081000000000e+03 0.000000000000e+00
    2.400000000000e+00 0.000000000000e+00-1.816079020500e-08 0.000000000000e+00
    2.479500000000e+05 4.000000000000e+00
28 19 11 26 21 59 44.0 7.533570751548e-04-1.591615728103e-12 0.000000000000e+00
    2.200000000000e+01 9.825000000000e+01 4.505901974618e-09-8.606520679446e-01
    5.286186933517e-06 1.909528102260e-02 2.618879079819e-06 5.153707847595e+03
    2.519840000000e+05-3.129243850708e-07-1.962029431453e+00 7.450580596924e-09
    9.797253999411e-01 3.439062500000e+02-1.435837837392e+00-8.656789161445e-09
    3.000124967247e-10 1.000000000000e+00 2.081000000000e+03 0.000000000000e+00
    2.400000000000e+00 0.000000000000e+00-1.117587089539e-08 2.200000000000e+01
    2.479800000000e+05 4.000000000000e+00
 2 19 11 26 21 59 44.0-3.547258675098e-04-7.617018127348e-12 0.000000000000e+00
    0.000000000000e+00-1.159062500000e+02 4.004095358072e-09 2.780904971214e+00
   -5.830079317093e-06 1.944600290153e-02 1.151673495770e-05 5.153589233398e+03
    2.519840000000e+05 2.011656761169e-07-2.514388693239e-02-1.154839992523e-07
    9.573930660069e-01 1.513750000000e+02-1.697482053958e+00-7.355306378034e-09
    1.435774091468e-10 1.000000000000e+00 2.081000000000e+03 0.000000000000e+00
    2.400000000000e+00 0.000000000000e+00-1.769512891769e-08 0.000000000000e+00
    2.505900000000e+05 4.000000000000e+00
 2 19 11 26 23 59 44.0-3.547803498805e-04-7.617018127348e-12 0.000000000000e+00
    5.000000000000e+00-1.166875000000e+02 4.008738408617e-09-2.452045915566e+00
   -5.902722477913e-06 1.944553304929e-02 1.173466444016e-05 5.153590108871e+03
    2.591840000000e+05 2.551823854446e-07-2.519722785139e-02-1.303851604462e-08
    9.573944031141e-01 1.477812500000e+02-1.697487680341e+00-7.370307002870e-09
    2.089372745047e-10 1.000000000000e+00 2.081000000000e+03 0.000000000000e+00
    2.400000000000e+00 0.000000000000e+00-1.769512891769e-08 5.000000000000e+00
    2.520000000000e+05 4.000000000000e+00
22 19 11 26 23 59 44.0-7.742168381810e-04-2.273736754432e-12 0.000000000000e+00
    1.000000000000e+00 3.818750000000e+01 5.457370178516e-09-1.498709258068e+00
    2.129003405571e-06 6.873696576804e-03 7.273629307747e-06 5.153633028030e+03
    2.591840000000e+05-9.685754776001e-08 1.008635843034e+00 1.490116119385e-07
    9.286859392685e-01 2.239062500000e+02-1.261347139486e+00-8.496068181056e-09
    6.914573734036e-10 1.000000000000e+00 2.081000000000e+03 0.000000000000e+00
    2.400000000000e+00 0.000000000000e+00-1.816079020500e-08 1.000000000000e+00
    2.520000000000e+05 4.000000000000e+00
